[{"OBJECT_NAME":"IRIDIUM 156","OBJECT_ID":"2018-061H","EPOCH":"2026-03-09T13:23:10.368096","MEAN_MOTION":14.34217428,"ECCENTRICITY":0.0001926,"INCLINATION":86.3916,"RA_OF_ASC_NODE":98.4058,"ARG_OF_PERICENTER":95.842,"MEAN_ANOMALY":264.2995,"EPHEMERIS_TYPE":0,"CLASSIFICATION_TYPE":"U","NORAD_CAT_ID":43576,"ELEMENT_SET_NO":999,"REV_AT_EPOCH":39909,"BSTAR":-1.5896e-5,"MEAN_MOTION_DOT":-2.5e-7,"MEAN_MOTION_DDOT":0},{"OBJECT_NAME":"TAURUS DEB","OBJECT_ID":"1998-007E","EPOCH":"2026-03-09T09:53:56.443776","MEAN_MOTION":14.2820335,"ECCENTRICITY":0.005964,"INCLINATION":107.9883,"RA_OF_ASC_NODE":230.376,"ARG_OF_PERICENTER":226.2045,"MEAN_ANOMALY":198.4198,"EPHEMERIS_TYPE":0,"CLASSIFICATION_TYPE":"U","NORAD_CAT_ID":25161,"ELEMENT_SET_NO":999,"REV_AT_EPOCH":45923,"BSTAR":0.00033244579,"MEAN_MOTION_DOT":7.14e-6,"MEAN_MOTION_DDOT":0}]
